2010 JC80,e,3.8789,50.0124,359.0238,34.80363,0.0048003,0.01645198,177.2450,05/24.0/2010,2000,H 5.6,0.15
2010 JJ124,e,39.2870,267.4076,2.1836,86.17976,0.0012320,0.73825390,356.5873,05/04.0/2010,2000,H 6.6,0.15
2010 JK124,e,14.9564,279.1832,317.6716,44.18748,0.0033555,0.08786678,3.2059,05/04.0/2010,2000,H 5.4,0.15
2010 KZ39,e,24.6462,52.1435,283.9409,184.4056,0.0003936,0.85827542,354.8337,05/24.0/2010,2000,H 4.0,0.15
2010 KR59,e,19.6702,46.7716,108.3001,29.71993,0.0060832,0.56312036,0.8685,07/23.0/2010,2000,H 7.7,0.15
2010 LO33,e,19.1355,240.8881,92.9990,24.50663,0.0081242,0.45914503,315.7788,05/24.0/2010,2000,H 7.8,0.15
2010 LN68,e,15.0870,92.5651,138.2046,12.58639,0.0220725,0.02176477,359.9803,06/13.0/2010,2000,H 9.2,0.15
2010 LP68,e,10.3435,262.7325,346.2834,39.65324,0.0039472,0.11479052,359.9287,05/24.0/2010,2000,H 8.9,0.15
2010 LQ68,e,2.8723,318.2436,291.0554,44.07996,0.0033678,0.10495714,359.9392,05/24.0/2010,2000,H 7.6,0.15
2010 LJ109,e,24.4132,42.4070,152.9156,13.49546,0.0198803,0.32908295,355.1185,07/23.0/2010,2000,H10.1,0.15
2010 LK109,e,7.7238,48.0302,21.8565,43.31263,0.0034577,0.09828987,179.5189,05/24.0/2010,2000,H 8.7,0.15
202421 2005 UQ513,e,25.6980,307.6440,220.9069,43.52565,0.0034323,0.14192127,217.9270,07/23.0/2010,2000,H 3.4,0.15
225088 2007 OR10,e,30.6763,336.8688,207.3247,67.28921,0.0017856,0.49967178,100.3740,07/23.0/2010,2000,H 1.9,0.15
229762 2007 UK126,e,23.3672,131.0840,346.0485,73.74390,0.0015564,0.48955579,339.8021,07/23.0/2010,2000,H 3.4,0.15
230965 2004 XA192,e,38.1437,328.5633,131.8268,47.17329,0.0030420,0.24774414,350.8316,07/23.0/2010,2000,H 4.0,0.15
241097 2007 DU112,e,15.6941,187.1314,348.4327,40.41100,0.0038367,0.77637568,5.5895,07/23.0/2010,2000,H11.1,0.15
